[{"OBJECT_NAME":"YAOGAN-31 01B","OBJECT_ID":"2018-034B","EPOCH":"2026-03-09T23:45:28.024416","MEAN_MOTION":13.45448043,"ECCENTRICITY":0.02667976,"INCLINATION":63.3987,"RA_OF_ASC_NODE":346.5136,"ARG_OF_PERICENTER":7.0679,"MEAN_ANOMALY":353.3992,"EPHEMERIS_TYPE":0,"CLASSIFICATION_TYPE":"U","NORAD_CAT_ID":43276,"ELEMENT_SET_NO":999,"REV_AT_EPOCH":38887,"BSTAR":-4.4582988e-5,"MEAN_MOTION_DOT":-1.23e-6,"MEAN_MOTION_DDOT":0},{"OBJECT_NAME":"ONEWEB-0443","OBJECT_ID":"2022-012R","EPOCH":"2026-03-09T21:35:18.306816","MEAN_MOTION":13.1764927,"ECCENTRICITY":0.00014984,"INCLINATION":87.9152,"RA_OF_ASC_NODE":25.596,"ARG_OF_PERICENTER":84.0075,"MEAN_ANOMALY":276.1227,"EPHEMERIS_TYPE":0,"CLASSIFICATION_TYPE":"U","NORAD_CAT_ID":51637,"ELEMENT_SET_NO":999,"REV_AT_EPOCH":20064,"BSTAR":-0.00053034286,"MEAN_MOTION_DOT":-1.93e-6,"MEAN_MOTION_DDOT":0}]
